start=new Date('2023-01-06T00:00:00.000Z').valueOf();
sats=[{"GP_ID":"222291155","REF_FRAME":"TEME","CENTER_NAME":"EARTH","BSTAR":"0.00024809000000","ELEMENT_SET_NO":"999","CLASSIFICATION_TYPE":"U","RCS_SIZE":"LARGE","PERIAPSIS":"538.164","PERIOD":"95.437","ECCENTRICITY":"0.00022230","COUNTRY_CODE":"US","APOAPSIS":"541.239","MEAN_MOTION":"15.08854402","EPHEMERIS_TYPE":"0","OBJECT_TYPE":"PAYLOAD","MEAN_MOTION_DDOT":"0.0000000000000","TLE_LINE1":"1 52862U 22062AJ  23005.60495867  .00003664  00000-0  24809-3 0  9995","SITE":"AFETR","MEAN_MOTION_DOT":"0.00003664","NORAD_CAT_ID":"52862","MEAN_ANOMALY":"311.8949","OBJECT_NAME":"STARLINK-4010","LAUNCH_DATE":"2022-06-17","SEMIMAJOR_AXIS":"6917.836","RA_OF_ASC_NODE":"187.4451","DECAY_DATE":null,"MEAN_ELEMENT_THEORY":"SGP4","EPOCH":"2023-01-05T14:31:08.429088","OBJECT_ID":"2022-062AJ","REV_AT_EPOCH":"3094","FILE":"3732963","ARG_OF_PERICENTER":"48.2233","TIME_SYSTEM":"UTC","TLE_LINE2":"2 52862  53.2153 187.4451 0002223  48.2233 311.8949 15.08854402 30943","INCLINATION":"53.2153"},{"REF_FRAME":"TEME","CENTER_NAME":"EARTH","ELEMENT_SET_NO":"999","BSTAR":"0.00003346800000","GP_ID":"222264458","CLASSIFICATION_TYPE":"U","RCS_SIZE":"LARGE","ECCENTRICITY":"0.00020930","PERIAPSIS":"538.272","PERIOD":"95.437","OBJECT_TYPE":"PAYLOAD","EPHEMERIS_TYPE":"0","COUNTRY_CODE":"US","APOAPSIS":"541.167","MEAN_MOTION":"15.08848476","MEAN_MOTION_DOT":"0.00000245","NORAD_CAT_ID":"52863","MEAN_MOTION_DDOT":"0.0000000000000","TLE_LINE1":"1 52863U 22062AK  23005.53135739  .00000245  00000-0  33468-4 0  9991","SITE":"AFETR","DECAY_DATE":null,"MEAN_ELEMENT_THEORY":"SGP4","EPOCH":"2023-01-05T12:45:09.278496","MEAN_ANOMALY":"312.7588","OBJECT_NAME":"STARLINK-4270","SEMIMAJOR_AXIS":"6917.854","LAUNCH_DATE":"2022-06-17","RA_OF_ASC_NODE":"187.7789","OBJECT_ID":"2022-062AK","REV_AT_EPOCH":"3093","ARG_OF_PERICENTER":"47.3580","FILE":"3732939","TIME_SYSTEM":"UTC","TLE_LINE2":"2 52863  53.2174 187.7789 0002093  47.3580 312.7588 15.08848476 30936","INCLINATION":"53.2174"},{"SITE":"AFETR","MEAN_MOTION_DDOT":"0.0000000000000","TLE_LINE1":"1 52864U 22062AL  23005.60127998  .00001430  00000-0  10789-3 0  9995","NORAD_CAT_ID":"52864","MEAN_MOTION_DOT":"0.00001430","OBJECT_NAME":"STARLINK-4267","RA_OF_ASC_NODE":"187.4600","LAUNCH_DATE":"2022-06-17","SEMIMAJOR_AXIS":"6917.844","MEAN_ANOMALY":"319.5271","DECAY_DATE":null,"EPOCH":"2023-01-05T14:25:50.590272","MEAN_ELEMENT_THEORY":"SGP4","ARG_OF_PERICENTER":"40.5930","FILE":"3732963","TIME_SYSTEM":"UTC","OBJECT_ID":"2022-062AL","REV_AT_EPOCH":"3094","TLE_LINE2":"2 52864  53.2155 187.4600 0002801  40.5930 319.5271 15.08851778 30940","INCLINATION":"53.2155","GP_ID":"222290160","ELEMENT_SET_NO":"999","BSTAR":"0.00010789000000","REF_FRAME":"TEME","CENTER_NAME":"EARTH","RCS_SIZE":"LARGE","CLASSIFICATION_TYPE":"U","PERIAPSIS":"537.772","PERIOD":"95.437","ECCENTRICITY":"0.00028010","APOAPSIS":"541.647","MEAN_MOTION":"15.08851778","COUNTRY_CODE":"US","OBJECT_TYPE":"PAYLOAD","EPHEMERIS_TYPE":"0"},{"PERIOD":"95.437","PERIAPSIS":"537.122","ECCENTRICITY":"0.00037680","COUNTRY_CODE":"US","MEAN_MOTION":"15.08845513","APOAPSIS":"542.335","EPHEMERIS_TYPE":"0","OBJECT_TYPE":"PAYLOAD","GP_ID":"222262957","CENTER_NAME":"EARTH","REF_FRAME":"TEME","BSTAR":"0.00009372300000","ELEMENT_SET_NO":"999","CLASSIFICATION_TYPE":"U","RCS_SIZE":"LARGE","REV_AT_EPOCH":"3093","OBJECT_ID":"2022-062AM","TIME_SYSTEM":"UTC","ARG_OF_PERICENTER":"32.7888","FILE":"3732939","INCLINATION":"53.2193","TLE_LINE2":"2 52865  53.2193 187.8465 0003768  32.7888 327.3338 15.08845513 30934","TLE_LINE1":"1 52865U 22062AM  23005.52032123  .00001203  00000-0  93723-4 0  9990","MEAN_MOTION_DDOT":"0.0000000000000","SITE":"AFETR","MEAN_MOTION_DOT":"0.00001203","NORAD_CAT_ID":"52865","MEAN_ANOMALY":"327.3338","SEMIMAJOR_AXIS":"6917.864","LAUNCH_DATE":"2022-06-17","RA_OF_ASC_NODE":"187.8465","OBJECT_NAME":"STARLINK-4274","MEAN_ELEMENT_THEORY":"SGP4","EPOCH":"2023-01-05T12:29:15.754272","DECAY_DATE":null},{"EPOCH":"2023-01-05T19:01:25.049856","MEAN_ELEMENT_THEORY":"SGP4","DECAY_DATE":null,"MEAN_ANOMALY":"310.9015","LAUNCH_DATE":"2022-06-17","RA_OF_ASC_NODE":"186.6127","SEMIMAJOR_AXIS":"6917.858","OBJECT_NAME":"STARLINK-4272","MEAN_MOTION_DOT":"0.00003185","NORAD_CAT_ID":"52866","TLE_LINE1":"1 52866U 22062AN  23005.79265104  .00003185  00000-0  21807-3 0  9991","MEAN_MOTION_DDOT":"0.0000000000000","SITE":"AFETR","INCLINATION":"53.2175","TLE_LINE2":"2 52866  53.2175 186.6127 0002464  49.2191 310.9015 15.08847389 30976","REV_AT_EPOCH":"3097","OBJECT_ID":"2022-062AN","TIME_SYSTEM":"UTC","ARG_OF_PERICENTER":"49.2191","FILE":"3732963","CLASSIFICATION_TYPE":"U","RCS_SIZE":"LARGE","CENTER_NAME":"EARTH","REF_FRAME":"TEME","ELEMENT_SET_NO":"999","BSTAR":"0.00021807000000","GP_ID":"222290656","EPHEMERIS_TYPE":"0","OBJECT_TYPE":"PAYLOAD","COUNTRY_CODE":"US","MEAN_MOTION":"15.08847389","APOAPSIS":"541.427","ECCENTRICITY":"0.00024640","PERIOD":"95.437","PERIAPSIS":"538.018"},{"TIME_SYSTEM":"UTC","FILE":"3732963","ARG_OF_PERICENTER":"37.3206","REV_AT_EPOCH":"3095","OBJECT_ID":"2022-062AP","INCLINATION":"53.2120","TLE_LINE2":"2 52867  53.2120 187.2816 0002812  37.3206 322.7981 15.08825479 30958","SITE":"AFETR","TLE_LINE1":"1 52867U 22062AP  23005.64545719  .00004001  00000-0  26948-3 0  9998","MEAN_MOTION_DDOT":"0.0000000000000","NORAD_CAT_ID":"52867","MEAN_MOTION_DOT":"0.00004001","RA_OF_ASC_NODE":"187.2816","LAUNCH_DATE":"2022-06-17","SEMIMAJOR_AXIS":"6917.925","OBJECT_NAME":"STARLINK-4126","MEAN_ANOMALY":"322.7981","EPOCH":"2023-01-05T15:29:27.501216","MEAN_ELEMENT_THEORY":"SGP4","DECAY_DATE":null,"PERIOD":"95.438","PERIAPSIS":"537.844","ECCENTRICITY":"0.00028120","MEAN_MOTION":"15.08825479","APOAPSIS":"541.735","COUNTRY_CODE":"US","OBJECT_TYPE":"PAYLOAD","EPHEMERIS_TYPE":"0","GP_ID":"222289910","BSTAR":"0.00026948000000","ELEMENT_SET_NO":"999","CENTER_NAME":"EARTH","REF_FRAME":"TEME","RCS_SIZE":"LARGE","CLASSIFICATION_TYPE":"U"},{"OBJECT_ID":"2022-062AQ","REV_AT_EPOCH":"3094","ARG_OF_PERICENTER":"45.5731","FILE":"3732963","TIME_SYSTEM":"UTC","TLE_LINE2":"2 52868  53.2158 187.5366 0003145  45.5731 314.5518 15.08851997 30945","INCLINATION":"53.2158","MEAN_MOTION_DOT":"0.00000714","NORAD_CAT_ID":"52868","MEAN_MOTION_DDOT":"0.0000000000000","TLE_LINE1":"1 52868U 22062AQ  23005.58751222  .00000714  00000-0  62975-4 0  9998","SITE":"AFETR","DECAY_DATE":null,"MEAN_ELEMENT_THEORY":"SGP4","EPOCH":"2023-01-05T14:06:01.055808","MEAN_ANOMALY":"314.5518","OBJECT_NAME":"STARLINK-4261","RA_OF_ASC_NODE":"187.5366","LAUNCH_DATE":"2022-06-17","SEMIMAJOR_AXIS":"6917.844","ECCENTRICITY":"0.00031450","PERIAPSIS":"537.533","PERIOD":"95.437","OBJECT_TYPE":"PAYLOAD","EPHEMERIS_TYPE":"0","COUNTRY_CODE":"US","APOAPSIS":"541.884","MEAN_MOTION":"15.08851997","REF_FRAME":"TEME","CENTER_NAME":"EARTH","BSTAR":"0.00006297500000","ELEMENT_SET_NO":"999","GP_ID":"222290661","CLASSIFICATION_TYPE":"U","RCS_SIZE":"LARGE"},{"TIME_SYSTEM":"UTC","ARG_OF_PERICENTER":"40.9567","FILE":"3732963","REV_AT_EPOCH":"3110","OBJECT_ID":"2022-062AR","INCLINATION":"53.2163","TLE_LINE2":"2 52869  53.2163 176.6961 0002601  40.9567 319.1620 15.08851607 31106","NORAD_CAT_ID":"52869","MEAN_MOTION_DOT":"0.00000983","SITE":"AFETR","TLE_LINE1":"1 52869U 22062AR  23005.77147275  .00000983  00000-0  79843-4 0  9997","MEAN_MOTION_DDOT":"0.0000000000000","EPOCH":"2023-01-05T18:30:55.245600","MEAN_ELEMENT_THEORY":"SGP4","DECAY_DATE":null,"LAUNCH_DATE":"2022-06-17","SEMIMAJOR_AXIS":"6917.845","RA_OF_ASC_NODE":"176.6961","OBJECT_NAME":"STARLINK-4266","MEAN_ANOMALY":"319.1620","ECCENTRICITY":"0.00026010","PERIOD":"95.437","PERIAPSIS":"537.911","EPHEMERIS_TYPE":"0","OBJECT_TYPE":"PAYLOAD","MEAN_MOTION":"15.08851607","APOAPSIS":"541.509","COUNTRY_CODE":"US","BSTAR":"0.00007984300000","ELEMENT_SET_NO":"999","CENTER_NAME":"EARTH","REF_FRAME":"TEME","GP_ID":"222290910","RCS_SIZE":"LARGE","CLASSIFICATION_TYPE":"U"},{"PERIAPSIS":"537.560","PERIOD":"95.438","ECCENTRICITY":"0.00031860","COUNTRY_CODE":"US","APOAPSIS":"541.968","MEAN_MOTION":"15.08833861","OBJECT_TYPE":"PAYLOAD","EPHEMERIS_TYPE":"0","GP_ID":"222291156","REF_FRAME":"TEME","CENTER_NAME":"EARTH","ELEMENT_SET_NO":"999","BSTAR":"-0.00007394600000","CLASSIFICATION_TYPE":"U","RCS_SIZE":"LARGE","OBJECT_ID":"2022-062AS","REV_AT_EPOCH":"3097","FILE":"3732963","ARG_OF_PERICENTER":"46.9324","TIME_SYSTEM":"UTC","TLE_LINE2":"2 52870  53.2152 186.6708 0003186  46.9324 313.1934 15.08833861 30970","INCLINATION":"53.2152","MEAN_MOTION_DDOT":"0.0000000000000","TLE_LINE1":"1 52870U 22062AS  23005.78161629 -.00001465  00000-0 -73946-4 0  9995","SITE":"AFETR","MEAN_MOTION_DOT":"-0.00001465","NORAD_CAT_ID":"52870","MEAN_ANOMALY":"313.1934","OBJECT_NAME":"STARLINK-4195","LAUNCH_DATE":"2022-06-17","RA_OF_ASC_NODE":"186.6708","SEMIMAJOR_AXIS":"6917.899","DECAY_DATE":null,"EPOCH":"2023-01-05T18:45:31.647456","MEAN_ELEMENT_THEORY":"SGP4"},{"TLE_LINE2":"2 52871  53.2161 176.7529 0002456  42.2305 317.8876 15.08853695 31108","INCLINATION":"53.2161","OBJECT_ID":"2022-062AT","REV_AT_EPOCH":"3110","FILE":"3732963","ARG_OF_PERICENTER":"42.2305","TIME_SYSTEM":"UTC","DECAY_DATE":null,"EPOCH":"2023-01-05T18:15:01.194336","MEAN_ELEMENT_THEORY":"SGP4","MEAN_ANOMALY":"317.8876","OBJECT_NAME":"STARLINK-4207","LAUNCH_DATE":"2022-06-17","RA_OF_ASC_NODE":"176.7529","SEMIMAJOR_AXIS":"6917.839","MEAN_MOTION_DOT":"0.00001209","NORAD_CAT_ID":"52871","MEAN_MOTION_DDOT":"0.0000000000000","TLE_LINE1":"1 52871U 22062AT  23005.76043049  .00001209  00000-0  94031-4 0  9991","SITE":"AFETR","OBJECT_TYPE":"PAYLOAD","EPHEMERIS_TYPE":"0","COUNTRY_CODE":"US","APOAPSIS":"541.403","MEAN_MOTION":"15.08853695","ECCENTRICITY":"0.00024560","PERIAPSIS":"538.005","PERIOD":"95.437","CLASSIFICATION_TYPE":"U","RCS_SIZE":"LARGE","REF_FRAME":"TEME","CENTER_NAME":"EARTH","ELEMENT_SET_NO":"999","BSTAR":"0.00009403100000","GP_ID":"222289410"}];
